{
  "norad_id": 53789,
  "name": "STARLINK-4666",
  "history": [
    {
      "epoch": "2026-03-28T14:11:58.000128Z",
      "apogee_km": 540.5438298910731,
      "perigee_km": 538.6635879663863,
      "latitude_deg": 8.4286530841312e-06,
      "longitude_deg": 149.99125279782177,
      "height_km": 540.7361628125257,
      "semi_major_axis_km": 6917.740708928729,
      "eccentricity": 0.0001359,
      "inclination_deg": 53.2156,
      "raan_deg": 188.9928,
      "arg_perigee_deg": 104.593,
      "mean_anomaly_deg": 255.5213,
      "mean_motion_rev_day": 15.08885699
    },
    {
      "epoch": "2026-03-28T23:44:21.224256Z",
      "apogee_km": 540.7863750433626,
      "perigee_km": 538.6778085441838,
      "latitude_deg": 2.5698367866365296e-05,
      "longitude_deg": 4.717213257503518,
      "height_km": 540.4030380041318,
      "semi_major_axis_km": 6917.869091793773,
      "eccentricity": 0.0001524,
      "inclination_deg": 53.2149,
      "raan_deg": 187.2073,
      "arg_perigee_deg": 77.7155,
      "mean_anomaly_deg": 282.4008,
      "mean_motion_rev_day": 15.08843696
    },
    {
      "epoch": "2026-03-29T23:35:08.493216Z",
      "apogee_km": 540.7029886005794,
      "perigee_km": 538.7355502775508,
      "latitude_deg": 2.6279131138582442e-05,
      "longitude_deg": 1.5797207236498423,
      "height_km": 540.4486918081163,
      "semi_major_axis_km": 6917.856269439065,
      "eccentricity": 0.0001422,
      "inclination_deg": 53.215,
      "raan_deg": 182.7461,
      "arg_perigee_deg": 80.2866,
      "mean_anomaly_deg": 279.8287,
      "mean_motion_rev_day": 15.08847891
    },
    {
      "epoch": "2026-03-30T05:56:41.293824Z",
      "apogee_km": 540.8550305375693,
      "perigee_km": 538.6479473940499,
      "latitude_deg": -2.0327130527427107e-05,
      "longitude_deg": -95.25754225739296,
      "height_km": 540.4613308747068,
      "semi_major_axis_km": 6917.888488965809,
      "eccentricity": 0.00015952,
      "inclination_deg": 53.2151,
      "raan_deg": 181.5567,
      "arg_perigee_deg": 80.332,
      "mean_anomaly_deg": 279.7852,
      "mean_motion_rev_day": 15.0883735
    },
    {
      "epoch": "2026-03-30T12:18:13.761792Z",
      "apogee_km": 540.7377862961503,
      "perigee_km": 538.6956358806374,
      "latitude_deg": 8.444182535675207e-06,
      "longitude_deg": 167.9067406170278,
      "height_km": 540.4440581280579,
      "semi_major_axis_km": 6917.8537110883935,
      "eccentricity": 0.0001476,
      "inclination_deg": 53.2152,
      "raan_deg": 180.3674,
      "arg_perigee_deg": 80.5301,
      "mean_anomaly_deg": 279.5858,
      "mean_motion_rev_day": 15.08848728
    },
    {
      "epoch": "2026-03-30T15:29:00.069216Z",
      "apogee_km": 540.7216954584637,
      "perigee_km": 538.7170390403617,
      "latitude_deg": 2.1142671173080287e-05,
      "longitude_deg": 119.48862396191684,
      "height_km": 540.446505278604,
      "semi_major_axis_km": 6917.856367249412,
      "eccentricity": 0.00014489,
      "inclination_deg": 53.2151,
      "raan_deg": 179.7728,
      "arg_perigee_deg": 80.3377,
      "mean_anomaly_deg": 279.7779,
      "mean_motion_rev_day": 15.08847859
    },
    {
      "epoch": "2026-03-31T12:09:00.875232Z",
      "apogee_km": 541.0166218008417,
      "perigee_km": 538.4001543181694,
      "latitude_deg": -1.099989633930347e-05,
      "longitude_deg": 164.77058374628797,
      "height_km": 540.501622688444,
      "semi_major_axis_km": 6917.845388059505,
      "eccentricity": 0.00018911,
      "inclination_deg": 53.2156,
      "raan_deg": 175.9069,
      "arg_perigee_deg": 85.5484,
      "mean_anomaly_deg": 274.5724,
      "mean_motion_rev_day": 15.08851451
    },
    {
      "epoch": "2026-04-01T11:59:47.876352Z",
      "apogee_km": 540.7122018933514,
      "perigee_km": 538.7502944581684,
      "latitude_deg": 4.2473588074634085e-05,
      "longitude_deg": 161.63425041285183,
      "height_km": 540.5910126550203,
      "semi_major_axis_km": 6917.86824817576,
      "eccentricity": 0.0001418,
      "inclination_deg": 53.2147,
      "raan_deg": 171.4457,
      "arg_perigee_deg": 87.9219,
      "mean_anomaly_deg": 272.1936,
      "mean_motion_rev_day": 15.08843972
    },
    {
      "epoch": "2026-04-02T11:50:34.894752Z",
      "apogee_km": 540.6476969306414,
      "perigee_km": 538.7874858310197,
      "latitude_deg": -2.3086318934287345e-05,
      "longitude_deg": 158.49915602260106,
      "height_km": 540.5142389526629,
      "semi_major_axis_km": 6917.85459138083,
      "eccentricity": 0.00013445,
      "inclination_deg": 53.2161,
      "raan_deg": 166.9859,
      "arg_perigee_deg": 83.8923,
      "mean_anomaly_deg": 276.2222,
      "mean_motion_rev_day": 15.0884844
    },
    {
      "epoch": "2026-04-02T21:22:53.124096Z",
      "apogee_km": 540.6292582393389,
      "perigee_km": 538.6951799336666,
      "latitude_deg": -1.7532024671326282e-05,
      "longitude_deg": 13.24747678266401,
      "height_km": 540.5274926944411,
      "semi_major_axis_km": 6917.7992190865025,
      "eccentricity": 0.00013979,
      "inclination_deg": 53.2153,
      "raan_deg": 165.2019,
      "arg_perigee_deg": 88.2121,
      "mean_anomaly_deg": 271.9031,
      "mean_motion_rev_day": 15.08866556
    },
    {
      "epoch": "2026-04-03T10:05:58.613856Z",
      "apogee_km": 540.6701514816286,
      "perigee_km": 538.8234915743105,
      "latitude_deg": 7.14849713863638e-06,
      "longitude_deg": 179.57330360986901,
      "height_km": 540.6827934227223,
      "semi_major_axis_km": 6917.883821527969,
      "eccentricity": 0.00013347,
      "inclination_deg": 53.2152,
      "raan_deg": 162.8229,
      "arg_perigee_deg": 92.5118,
      "mean_anomaly_deg": 267.6027,
      "mean_motion_rev_day": 15.08838877
    },
    {
      "epoch": "2026-04-05T11:22:56.279136Z",
      "apogee_km": 540.6121849382889,
      "perigee_km": 538.812990617499,
      "latitude_deg": 8.70892611577218e-06,
      "longitude_deg": 149.09036298078493,
      "height_km": 540.7243511816135,
      "semi_major_axis_km": 6917.849587777894,
      "eccentricity": 0.00013004,
      "inclination_deg": 53.2144,
      "raan_deg": 153.6042,
      "arg_perigee_deg": 97.4266,
      "mean_anomaly_deg": 262.6874,
      "mean_motion_rev_day": 15.08850077
    },
    {
      "epoch": "2026-04-06T03:16:47.550144Z",
      "apogee_km": 540.8646322854975,
      "perigee_km": 538.5810467524716,
      "latitude_deg": -1.8249148081667186e-05,
      "longitude_deg": -92.99967776346129,
      "height_km": 540.6197593230539,
      "semi_major_axis_km": 6917.859839518984,
      "eccentricity": 0.00016505,
      "inclination_deg": 53.2142,
      "raan_deg": 150.6307,
      "arg_perigee_deg": 90.0982,
      "mean_anomaly_deg": 270.0199,
      "mean_motion_rev_day": 15.08846723
    },
    {
      "epoch": "2026-04-07T09:29:08.083680Z",
      "apogee_km": 540.778127013592,
      "perigee_km": 538.7777427310257,
      "latitude_deg": 3.607078286135917e-05,
      "longitude_deg": 167.0235987546583,
      "height_km": 540.6252125015645,
      "semi_major_axis_km": 6917.914934872309,
      "eccentricity": 0.00014458,
      "inclination_deg": 53.2137,
      "raan_deg": 144.98,
      "arg_perigee_deg": 87.2545,
      "mean_anomaly_deg": 272.8613,
      "mean_motion_rev_day": 15.08828698
    },
    {
      "epoch": "2026-04-08T09:19:56.480160Z",
      "apogee_km": 540.6409217764494,
      "perigee_km": 538.9154553701155,
      "latitude_deg": 1.7870803940307182e-05,
      "longitude_deg": 163.88317792260128,
      "height_km": 540.5234036326432,
      "semi_major_axis_km": 6917.915188573283,
      "eccentricity": 0.00012471,
      "inclination_deg": 53.2153,
      "raan_deg": 140.5206,
      "arg_perigee_deg": 79.9573,
      "mean_anomaly_deg": 280.156,
      "mean_motion_rev_day": 15.08828615
    },
    {
      "epoch": "2026-04-09T09:10:43.802688Z",
      "apogee_km": 540.5942988217657,
      "perigee_km": 538.8829547492114,
      "latitude_deg": -2.144611235204167e-05,
      "longitude_deg": 160.74632841636094,
      "height_km": 540.4729497783042,
      "semi_major_axis_km": 6917.875626785489,
      "eccentricity": 0.00012369,
      "inclination_deg": 53.2161,
      "raan_deg": 136.0603,
      "arg_perigee_deg": 79.124,
      "mean_anomaly_deg": 280.9891,
      "mean_motion_rev_day": 15.08841558
    },
    {
      "epoch": "2026-04-11T18:24:35.567712Z",
      "apogee_km": 540.5901806707743,
      "perigee_km": 538.8081460750891,
      "latitude_deg": -5.9110857239876166e-05,
      "longitude_deg": 9.223811898070062,
      "height_km": 540.4183592600991,
      "semi_major_axis_km": 6917.836163372932,
      "eccentricity": 0.0001288,
      "inclination_deg": 53.215,
      "raan_deg": 125.3539,
      "arg_perigee_deg": 78.5809,
      "mean_anomaly_deg": 281.5327,
      "mean_motion_rev_day": 15.08854469
    },
    {
      "epoch": "2026-04-13T05:23:05.564544Z",
      "apogee_km": 540.7643525182802,
      "perigee_km": 538.8976080384809,
      "latitude_deg": 4.004227279815199e-06,
      "longitude_deg": -163.3800008852415,
      "height_km": 540.6368042098682,
      "semi_major_axis_km": 6917.96798027838,
      "eccentricity": 0.00013492,
      "inclination_deg": 53.2144,
      "raan_deg": 118.8114,
      "arg_perigee_deg": 84.4928,
      "mean_anomaly_deg": 275.6218,
      "mean_motion_rev_day": 15.08811344
    },
    {
      "epoch": "2026-04-14T17:56:58.040736Z",
      "apogee_km": 540.6725001238519,
      "perigee_km": 538.7908398456166,
      "latitude_deg": 1.2973427091200226e-05,
      "longitude_deg": -0.18959723754557634,
      "height_km": 540.5933943124534,
      "semi_major_axis_km": 6917.868669984734,
      "eccentricity": 0.000136,
      "inclination_deg": 53.2151,
      "raan_deg": 111.9721,
      "arg_perigee_deg": 87.9449,
      "mean_anomaly_deg": 272.1699,
      "mean_motion_rev_day": 15.08843834
    }
  ]
}